{"fetched_at":"2026-07-13T18:16:56.496Z","source":"https://celestrak.org/NORAD/elements/gp.php?NAME=HAWK&FORMAT=JSON","constellation":"hawkeye-360","records":[{"OBJECT_NAME":"HAWK-A","OBJECT_ID":"2018-099H","EPOCH":"2026-07-12T16:18:12.899808","CLASSIFICATION_TYPE":"U","MEAN_MOTION":15.2494436,"ECCENTRICITY":0.00344518,"INCLINATION":97.3903,"RA_OF_ASC_NODE":245.5853,"ARG_OF_PERICENTER":192.819,"MEAN_ANOMALY":167.2175,"EPHEMERIS_TYPE":0,"NORAD_CAT_ID":43765,"ELEMENT_SET_NO":999,"REV_AT_EPOCH":41698,"BSTAR":0.00016641638,"MEAN_MOTION_DOT":0.0000414,"MEAN_MOTION_DDOT":0},{"OBJECT_NAME":"HAWK-B","OBJECT_ID":"2018-099AN","EPOCH":"2026-07-13T03:00:53.979264","CLASSIFICATION_TYPE":"U","MEAN_MOTION":15.23101586,"ECCENTRICITY":0.00311752,"INCLINATION":97.3951,"RA_OF_ASC_NODE":245.3861,"ARG_OF_PERICENTER":209.4603,"MEAN_ANOMALY":150.4878,"EPHEMERIS_TYPE":0,"NORAD_CAT_ID":43794,"ELEMENT_SET_NO":999,"REV_AT_EPOCH":41698,"BSTAR":0.0001593939,"MEAN_MOTION_DOT":0.00003736,"MEAN_MOTION_DDOT":0},{"OBJECT_NAME":"HAWK-C","OBJECT_ID":"2018-099AT","EPOCH":"2026-07-12T17:29:15.715104","CLASSIFICATION_TYPE":"U","MEAN_MOTION":15.28466075,"ECCENTRICITY":0.00400408,"INCLINATION":97.3881,"RA_OF_ASC_NODE":246.673,"ARG_OF_PERICENTER":192.5496,"MEAN_ANOMALY":167.475,"EPHEMERIS_TYPE":0,"NORAD_CAT_ID":43799,"ELEMENT_SET_NO":999,"REV_AT_EPOCH":41781,"BSTAR":0.00017914712,"MEAN_MOTION_DOT":0.00005004,"MEAN_MOTION_DDOT":0},{"OBJECT_NAME":"HAWK-2C","OBJECT_ID":"2021-006CT","EPOCH":"2026-07-13T03:58:38.732448","CLASSIFICATION_TYPE":"U","MEAN_MOTION":15.3497314,"ECCENTRICITY":0.00086281,"INCLINATION":97.2268,"RA_OF_ASC_NODE":237.96,"ARG_OF_PERICENTER":106.6131,"MEAN_ANOMALY":253.606,"EPHEMERIS_TYPE":0,"NORAD_CAT_ID":47502,"ELEMENT_SET_NO":999,"REV_AT_EPOCH":30348,"BSTAR":0.000120521,"MEAN_MOTION_DOT":0.00004014,"MEAN_MOTION_DDOT":0},{"OBJECT_NAME":"HAWK-2A","OBJECT_ID":"2021-006CW","EPOCH":"2026-07-13T04:01:52.621824","CLASSIFICATION_TYPE":"U","MEAN_MOTION":15.34987922,"ECCENTRICITY":0.00081463,"INCLINATION":97.2311,"RA_OF_ASC_NODE":238.6553,"ARG_OF_PERICENTER":109.8797,"MEAN_ANOMALY":250.3325,"EPHEMERIS_TYPE":0,"NORAD_CAT_ID":47505,"ELEMENT_SET_NO":999,"REV_AT_EPOCH":30348,"BSTAR":0.00011971799,"MEAN_MOTION_DOT":0.00003988,"MEAN_MOTION_DDOT":0},{"OBJECT_NAME":"HAWK-2B","OBJECT_ID":"2021-006CZ","EPOCH":"2026-07-13T00:45:03.989088","CLASSIFICATION_TYPE":"U","MEAN_MOTION":15.35117562,"ECCENTRICITY":0.00086795,"INCLINATION":97.218,"RA_OF_ASC_NODE":236.8123,"ARG_OF_PERICENTER":108.6598,"MEAN_ANOMALY":251.5589,"EPHEMERIS_TYPE":0,"NORAD_CAT_ID":47508,"ELEMENT_SET_NO":999,"REV_AT_EPOCH":30346,"BSTAR":0.00014752503,"MEAN_MOTION_DOT":0.00004954,"MEAN_MOTION_DDOT":0},{"OBJECT_NAME":"HAWK-3B","OBJECT_ID":"2021-059BE","EPOCH":"2026-07-12T13:17:15.035136","CLASSIFICATION_TYPE":"U","MEAN_MOTION":15.71695978,"ECCENTRICITY":0.0004238,"INCLINATION":97.6638,"RA_OF_ASC_NODE":32.7011,"ARG_OF_PERICENTER":208.8876,"MEAN_ANOMALY":151.2152,"EPHEMERIS_TYPE":0,"NORAD_CAT_ID":48931,"ELEMENT_SET_NO":999,"REV_AT_EPOCH":28183,"BSTAR":0.00025051,"MEAN_MOTION_DOT":0.00032206,"MEAN_MOTION_DDOT":0},{"OBJECT_NAME":"HAWK-3C","OBJECT_ID":"2021-059BX","EPOCH":"2026-07-12T13:16:48.153504","CLASSIFICATION_TYPE":"U","MEAN_MOTION":15.71698478,"ECCENTRICITY":0.00045015,"INCLINATION":97.6757,"RA_OF_ASC_NODE":38.43,"ARG_OF_PERICENTER":208.2392,"MEAN_ANOMALY":151.8627,"EPHEMERIS_TYPE":0,"NORAD_CAT_ID":48948,"ELEMENT_SET_NO":999,"REV_AT_EPOCH":28183,"BSTAR":0.00027246147,"MEAN_MOTION_DOT":0.00035057,"MEAN_MOTION_DDOT":0},{"OBJECT_NAME":"HAWK-3A","OBJECT_ID":"2021-059CG","EPOCH":"2026-07-12T22:26:43.414944","CLASSIFICATION_TYPE":"U","MEAN_MOTION":15.7173009,"ECCENTRICITY":0.00044094,"INCLINATION":97.6702,"RA_OF_ASC_NODE":36.0341,"ARG_OF_PERICENTER":210.6539,"MEAN_ANOMALY":149.4466,"EPHEMERIS_TYPE":0,"NORAD_CAT_ID":48957,"ELEMENT_SET_NO":999,"REV_AT_EPOCH":28189,"BSTAR":0.00029266791,"MEAN_MOTION_DOT":0.00037729,"MEAN_MOTION_DDOT":0},{"OBJECT_NAME":"HAWK-5C","OBJECT_ID":"2022-057Y","EPOCH":"2026-07-13T06:54:49.936608","CLASSIFICATION_TYPE":"U","MEAN_MOTION":15.52281591,"ECCENTRICITY":0.00030118,"INCLINATION":97.6607,"RA_OF_ASC_NODE":355.6598,"ARG_OF_PERICENTER":354.4378,"MEAN_ANOMALY":5.684,"EPHEMERIS_TYPE":0,"NORAD_CAT_ID":52754,"ELEMENT_SET_NO":999,"REV_AT_EPOCH":23039,"BSTAR":0.00019263826,"MEAN_MOTION_DOT":0.00011605,"MEAN_MOTION_DDOT":0},{"OBJECT_NAME":"HAWK-5B","OBJECT_ID":"2022-057AA","EPOCH":"2026-07-13T06:54:33.760800","CLASSIFICATION_TYPE":"U","MEAN_MOTION":15.5227909,"ECCENTRICITY":0.00036582,"INCLINATION":97.6622,"RA_OF_ASC_NODE":354.0126,"ARG_OF_PERICENTER":340.2436,"MEAN_ANOMALY":19.8674,"EPHEMERIS_TYPE":0,"NORAD_CAT_ID":52756,"ELEMENT_SET_NO":999,"REV_AT_EPOCH":23039,"BSTAR":0.00019281095,"MEAN_MOTION_DOT":0.00011615,"MEAN_MOTION_DDOT":0},{"OBJECT_NAME":"HAWK-5A","OBJECT_ID":"2022-057AB","EPOCH":"2026-07-13T06:54:16.871328","CLASSIFICATION_TYPE":"U","MEAN_MOTION":15.52280149,"ECCENTRICITY":0.00035271,"INCLINATION":97.6616,"RA_OF_ASC_NODE":354.8429,"ARG_OF_PERICENTER":345.9829,"MEAN_ANOMALY":14.1325,"EPHEMERIS_TYPE":0,"NORAD_CAT_ID":52757,"ELEMENT_SET_NO":999,"REV_AT_EPOCH":23039,"BSTAR":0.00019663279,"MEAN_MOTION_DOT":0.00011848,"MEAN_MOTION_DDOT":0},{"OBJECT_NAME":"HAWK-6B","OBJECT_ID":"2023-011A","EPOCH":"2026-07-13T05:09:27.736704","CLASSIFICATION_TYPE":"U","MEAN_MOTION":15.23142556,"ECCENTRICITY":0.00039102,"INCLINATION":40.4967,"RA_OF_ASC_NODE":200.2343,"ARG_OF_PERICENTER":230.1473,"MEAN_ANOMALY":129.8993,"EPHEMERIS_TYPE":0,"NORAD_CAT_ID":55324,"ELEMENT_SET_NO":999,"REV_AT_EPOCH":19181,"BSTAR":0.00011086608,"MEAN_MOTION_DOT":0.00002478,"MEAN_MOTION_DDOT":0},{"OBJECT_NAME":"HAWK-6C","OBJECT_ID":"2023-011C","EPOCH":"2026-07-13T05:08:33.447264","CLASSIFICATION_TYPE":"U","MEAN_MOTION":15.23144916,"ECCENTRICITY":0.0004414,"INCLINATION":40.4959,"RA_OF_ASC_NODE":197.0735,"ARG_OF_PERICENTER":222.145,"MEAN_ANOMALY":137.902,"EPHEMERIS_TYPE":0,"NORAD_CAT_ID":55326,"ELEMENT_SET_NO":999,"REV_AT_EPOCH":19182,"BSTAR":0.00011630719,"MEAN_MOTION_DOT":0.00002609,"MEAN_MOTION_DDOT":0},{"OBJECT_NAME":"HAWK-6A","OBJECT_ID":"2023-011D","EPOCH":"2026-07-13T05:08:36.583584","CLASSIFICATION_TYPE":"U","MEAN_MOTION":15.23144014,"ECCENTRICITY":0.00039389,"INCLINATION":40.4967,"RA_OF_ASC_NODE":198.7004,"ARG_OF_PERICENTER":219.5688,"MEAN_ANOMALY":140.4834,"EPHEMERIS_TYPE":0,"NORAD_CAT_ID":55327,"ELEMENT_SET_NO":999,"REV_AT_EPOCH":19182,"BSTAR":0.00011659745,"MEAN_MOTION_DOT":0.00002616,"MEAN_MOTION_DDOT":0},{"OBJECT_NAME":"HAWK-7A","OBJECT_ID":"2023-054P","EPOCH":"2026-07-13T05:57:46.972512","CLASSIFICATION_TYPE":"U","MEAN_MOTION":15.27620219,"ECCENTRICITY":0.00016234,"INCLINATION":97.2672,"RA_OF_ASC_NODE":80.9236,"ARG_OF_PERICENTER":344.3845,"MEAN_ANOMALY":15.7344,"EPHEMERIS_TYPE":0,"NORAD_CAT_ID":56191,"ELEMENT_SET_NO":999,"REV_AT_EPOCH":18100,"BSTAR":0.00012335102,"MEAN_MOTION_DOT":0.00003258,"MEAN_MOTION_DDOT":0}]}
